start=new Date('2022-02-13T00:00:00.000Z').valueOf();
sats=[{"ECCENTRICITY":"0.00014360","EPOCH":"2022-02-12T19:55:53.097024","PERIAPSIS":"546.243","EPHEMERIS_TYPE":"0","TLE_LINE1":"1 47634U 21012Q   22043.83047566 -.00002846  00000-0 -17231-3 0  9999","FILE":"3298683","CLASSIFICATION_TYPE":"U","APOAPSIS":"548.232","OBJECT_NAME":"STARLINK-2010","ARG_OF_PERICENTER":"71.8866","INCLINATION":"53.0525","SITE":"AFETR","REV_AT_EPOCH":"5551","ELEMENT_SET_NO":"999","PERIOD":"95.593","MEAN_MOTION":"15.06392079","TIME_SYSTEM":"UTC","MEAN_ANOMALY":"288.2279","TLE_LINE2":"2 47634  53.0525 261.9023 0001436  71.8866 288.2279 15.06392079 55515","SEMIMAJOR_AXIS":"6925.373","CENTER_NAME":"EARTH","REF_FRAME":"TEME","LAUNCH_DATE":"2021-02-16","MEAN_MOTION_DDOT":"0.0000000000000","BSTAR":"-0.00017231000000","OBJECT_ID":"2021-012Q","RA_OF_ASC_NODE":"261.9023","MEAN_ELEMENT_THEORY":"SGP4","OBJECT_TYPE":"PAYLOAD","COUNTRY_CODE":"US","MEAN_MOTION_DOT":"-0.00002846","GP_ID":"195826910","RCS_SIZE":"LARGE","DECAY_DATE":null,"NORAD_CAT_ID":"47634"},{"SITE":"AFETR","INCLINATION":"53.0539","REV_AT_EPOCH":"5685","MEAN_MOTION":"15.06369688","ELEMENT_SET_NO":"999","PERIOD":"95.594","TIME_SYSTEM":"UTC","TLE_LINE2":"2 47635  53.0539 166.4063 0001118  81.7232 248.6979 15.06369688 56853","SEMIMAJOR_AXIS":"6925.441","CENTER_NAME":"EARTH","MEAN_ANOMALY":"248.6979","LAUNCH_DATE":"2021-02-16","REF_FRAME":"TEME","ECCENTRICITY":"0.00011180","EPHEMERIS_TYPE":"0","PERIAPSIS":"546.532","TLE_LINE1":"1 47635U 21012R   22043.91667824 -.00008686  00000-0 -56538-3 0  9995","EPOCH":"2022-02-12T22:00:00.999936","CLASSIFICATION_TYPE":"U","FILE":"3298683","OBJECT_NAME":"STARLINK-2012","ARG_OF_PERICENTER":"81.7232","APOAPSIS":"548.081","RA_OF_ASC_NODE":"166.4063","OBJECT_TYPE":"PAYLOAD","COUNTRY_CODE":"US","MEAN_ELEMENT_THEORY":"SGP4","MEAN_MOTION_DOT":"-0.00008686","RCS_SIZE":"LARGE","GP_ID":"195826529","NORAD_CAT_ID":"47635","DECAY_DATE":null,"MEAN_MOTION_DDOT":"0.0000000000000","BSTAR":"-0.00056538000000","OBJECT_ID":"2021-012R"},{"REV_AT_EPOCH":"5579","SITE":"AFETR","INCLINATION":"53.0551","PERIOD":"95.592","ELEMENT_SET_NO":"999","MEAN_MOTION":"15.06409511","TIME_SYSTEM":"UTC","LAUNCH_DATE":"2021-02-16","REF_FRAME":"TEME","TLE_LINE2":"2 47636  53.0551 241.9544 0000900 132.9431 227.1634 15.06409511 55791","CENTER_NAME":"EARTH","SEMIMAJOR_AXIS":"6925.319","MEAN_ANOMALY":"227.1634","ECCENTRICITY":"0.00009000","EPOCH":"2022-02-12T19:37:18.558624","TLE_LINE1":"1 47636U 21012S   22043.81757591 -.00000995  00000-0 -47908-4 0  9993","PERIAPSIS":"546.561","EPHEMERIS_TYPE":"0","FILE":"3298683","CLASSIFICATION_TYPE":"U","APOAPSIS":"547.808","OBJECT_NAME":"STARLINK-2013","ARG_OF_PERICENTER":"132.9431","RA_OF_ASC_NODE":"241.9544","MEAN_ELEMENT_THEORY":"SGP4","COUNTRY_CODE":"US","OBJECT_TYPE":"PAYLOAD","RCS_SIZE":"LARGE","GP_ID":"195826899","MEAN_MOTION_DOT":"-0.00000995","DECAY_DATE":null,"NORAD_CAT_ID":"47636","MEAN_MOTION_DDOT":"0.0000000000000","BSTAR":"-0.00004790800000","OBJECT_ID":"2021-012S"},{"ECCENTRICITY":"0.00015220","EPOCH":"2022-02-12T06:10:34.024800","PERIAPSIS":"546.126","EPHEMERIS_TYPE":"0","TLE_LINE1":"1 47637U 21012T   22043.25733825  .00005961  00000-0  41859-3 0  9990","FILE":"3298493","CLASSIFICATION_TYPE":"U","APOAPSIS":"548.234","ARG_OF_PERICENTER":"70.9579","OBJECT_NAME":"STARLINK-2014","SITE":"AFETR","INCLINATION":"53.0539","REV_AT_EPOCH":"5623","ELEMENT_SET_NO":"999","PERIOD":"95.591","MEAN_MOTION":"15.06410884","TIME_SYSTEM":"UTC","TLE_LINE2":"2 47637  53.0539 244.4705 0001522  70.9579 289.1575 15.06410884 56237","SEMIMAJOR_AXIS":"6925.315","CENTER_NAME":"EARTH","MEAN_ANOMALY":"289.1575","REF_FRAME":"TEME","LAUNCH_DATE":"2021-02-16","MEAN_MOTION_DDOT":"0.0000000000000","BSTAR":"0.00041859000000","OBJECT_ID":"2021-012T","RA_OF_ASC_NODE":"244.4705","MEAN_ELEMENT_THEORY":"SGP4","OBJECT_TYPE":"PAYLOAD","COUNTRY_CODE":"US","MEAN_MOTION_DOT":"0.00005961","RCS_SIZE":"LARGE","GP_ID":"195821487","DECAY_DATE":null,"NORAD_CAT_ID":"47637"},{"DECAY_DATE":null,"NORAD_CAT_ID":"47638","MEAN_MOTION_DOT":"0.00000417","RCS_SIZE":"LARGE","GP_ID":"195826539","MEAN_ELEMENT_THEORY":"SGP4","OBJECT_TYPE":"PAYLOAD","COUNTRY_CODE":"US","RA_OF_ASC_NODE":"167.4457","BSTAR":"0.00004689000000","OBJECT_ID":"2021-012U","MEAN_MOTION_DDOT":"0.0000000000000","TLE_LINE2":"2 47638  53.0502 167.4457 0002017  86.9855 273.1365 15.06396441 56827","CENTER_NAME":"EARTH","SEMIMAJOR_AXIS":"6925.359","MEAN_ANOMALY":"273.1365","REF_FRAME":"TEME","LAUNCH_DATE":"2021-02-16","TIME_SYSTEM":"UTC","ELEMENT_SET_NO":"999","PERIOD":"95.592","MEAN_MOTION":"15.06396441","SITE":"AFETR","INCLINATION":"53.0502","REV_AT_EPOCH":"5682","APOAPSIS":"548.621","OBJECT_NAME":"STARLINK-2015","ARG_OF_PERICENTER":"86.9855","FILE":"3298692","CLASSIFICATION_TYPE":"U","EPOCH":"2022-02-12T17:15:58.856544","PERIAPSIS":"545.828","EPHEMERIS_TYPE":"0","TLE_LINE1":"1 47638U 21012U   22043.71943121  .00000417  00000-0  46890-4 0  9996","ECCENTRICITY":"0.00020170"},{"NORAD_CAT_ID":"47639","DECAY_DATE":null,"GP_ID":"195820486","RCS_SIZE":"LARGE","MEAN_MOTION_DOT":"0.00002845","COUNTRY_CODE":"US","OBJECT_TYPE":"PAYLOAD","MEAN_ELEMENT_THEORY":"SGP4","RA_OF_ASC_NODE":"245.4556","OBJECT_ID":"2021-012V","BSTAR":"0.00020976000000","MEAN_MOTION_DDOT":"0.0000000000000","REF_FRAME":"TEME","LAUNCH_DATE":"2021-02-16","TLE_LINE2":"2 47639  53.0539 245.4556 0001810  68.9295 291.1887 15.06415289 56172","CENTER_NAME":"EARTH","SEMIMAJOR_AXIS":"6925.302","MEAN_ANOMALY":"291.1887","TIME_SYSTEM":"UTC","MEAN_MOTION":"15.06415289","PERIOD":"95.591","ELEMENT_SET_NO":"999","REV_AT_EPOCH":"5617","SITE":"AFETR","INCLINATION":"53.0539","ARG_OF_PERICENTER":"68.9295","OBJECT_NAME":"STARLINK-2016","APOAPSIS":"548.420","FILE":"3298493","CLASSIFICATION_TYPE":"U","TLE_LINE1":"1 47639U 21012V   22043.03616457  .00002845  00000-0  20976-3 0  9994","EPHEMERIS_TYPE":"0","PERIAPSIS":"545.913","EPOCH":"2022-02-12T00:52:04.618848","ECCENTRICITY":"0.00018100"},{"MEAN_MOTION_DOT":"-0.00000811","RCS_SIZE":"LARGE","GP_ID":"195826918","DECAY_DATE":null,"NORAD_CAT_ID":"47640","RA_OF_ASC_NODE":"261.9168","MEAN_ELEMENT_THEORY":"SGP4","OBJECT_TYPE":"PAYLOAD","COUNTRY_CODE":"US","BSTAR":"-0.00003552900000","OBJECT_ID":"2021-012W","MEAN_MOTION_DDOT":"0.0000000000000","TIME_SYSTEM":"UTC","TLE_LINE2":"2 47640  53.0537 261.9168 0001399  52.5441 307.5675 15.06401680 55512","SEMIMAJOR_AXIS":"6925.343","CENTER_NAME":"EARTH","MEAN_ANOMALY":"307.5675","LAUNCH_DATE":"2021-02-16","REF_FRAME":"TEME","INCLINATION":"53.0537","SITE":"AFETR","REV_AT_EPOCH":"5551","ELEMENT_SET_NO":"999","PERIOD":"95.592","MEAN_MOTION":"15.06401680","CLASSIFICATION_TYPE":"U","FILE":"3298692","APOAPSIS":"548.177","ARG_OF_PERICENTER":"52.5441","OBJECT_NAME":"STARLINK-2018","ECCENTRICITY":"0.00013990","EPOCH":"2022-02-12T19:50:34.884096","PERIAPSIS":"546.240","EPHEMERIS_TYPE":"0","TLE_LINE1":"1 47640U 21012W   22043.82679264 -.00000811  00000-0 -35529-4 0  9992"},{"DECAY_DATE":null,"NORAD_CAT_ID":"47641","MEAN_MOTION_DOT":"-0.00004481","RCS_SIZE":"LARGE","GP_ID":"195827439","MEAN_ELEMENT_THEORY":"SGP4","OBJECT_TYPE":"PAYLOAD","COUNTRY_CODE":"US","RA_OF_ASC_NODE":"166.5080","OBJECT_ID":"2021-012X","BSTAR":"-0.00028225000000","MEAN_MOTION_DDOT":"0.0000000000000","SEMIMAJOR_AXIS":"6925.405","TLE_LINE2":"2 47641  53.0540 166.5080 0001311  70.5308 359.8907 15.06381567 56864","MEAN_ANOMALY":"359.8907","CENTER_NAME":"EARTH","REF_FRAME":"TEME","LAUNCH_DATE":"2021-02-16","TIME_SYSTEM":"UTC","ELEMENT_SET_NO":"999","PERIOD":"95.593","MEAN_MOTION":"15.06381567","INCLINATION":"53.0540","SITE":"AFETR","REV_AT_EPOCH":"5686","APOAPSIS":"548.178","ARG_OF_PERICENTER":"70.5308","OBJECT_NAME":"STARLINK-2019","CLASSIFICATION_TYPE":"U","FILE":"3298746","EPOCH":"2022-02-12T22:00:00.999936","EPHEMERIS_TYPE":"0","PERIAPSIS":"546.362","TLE_LINE1":"1 47641U 21012X   22043.91667824 -.00004481  00000-0 -28225-3 0  9993","ECCENTRICITY":"0.00013110"},{"OBJECT_ID":"2021-012Y","BSTAR":"-0.00001687300000","MEAN_MOTION_DDOT":"0.0000000000000","DECAY_DATE":null,"NORAD_CAT_ID":"47642","GP_ID":"195821738","RCS_SIZE":"MEDIUM","MEAN_MOTION_DOT":"-0.00000533","MEAN_ELEMENT_THEORY":"SGP4","COUNTRY_CODE":"US","OBJECT_TYPE":"PAYLOAD","RA_OF_ASC_NODE":"258.1048","APOAPSIS":"548.467","ARG_OF_PERICENTER":"77.8251","OBJECT_NAME":"STARLINK-2020","FILE":"3298493","CLASSIFICATION_TYPE":"U","EPOCH":"2022-02-12T13:37:02.828640","TLE_LINE1":"1 47642U 21012Y   22043.56739385 -.00000533  00000-0 -16873-4 0  9998","EPHEMERIS_TYPE":"0","PERIAPSIS":"545.890","ECCENTRICITY":"0.00018600","LAUNCH_DATE":"2021-02-16","REF_FRAME":"TEME","TLE_LINE2":"2 47642  53.0499 258.1048 0001860  77.8251 282.2946 15.06411467 56052","CENTER_NAME":"EARTH","SEMIMAJOR_AXIS":"6925.313","MEAN_ANOMALY":"282.2946","TIME_SYSTEM":"UTC","PERIOD":"95.591","ELEMENT_SET_NO":"999","MEAN_MOTION":"15.06411467","REV_AT_EPOCH":"5605","INCLINATION":"53.0499","SITE":"AFETR"},{"MEAN_MOTION_DDOT":"0.0000000000000","BSTAR":"0.00018424000000","OBJECT_ID":"2021-012Z","RA_OF_ASC_NODE":"241.8184","COUNTRY_CODE":"US","OBJECT_TYPE":"PAYLOAD","MEAN_ELEMENT_THEORY":"SGP4","GP_ID":"195828332","RCS_SIZE":"LARGE","MEAN_MOTION_DOT":"0.00002464","NORAD_CAT_ID":"47643","DECAY_DATE":null,"ECCENTRICITY":"0.00016920","TLE_LINE1":"1 47643U 21012Z   22043.84707702  .00002464  00000-0  18424-3 0  9994","PERIAPSIS":"546.030","EPHEMERIS_TYPE":"0","EPOCH":"2022-02-12T20:19:47.454528","CLASSIFICATION_TYPE":"U","FILE":"3298788","OBJECT_NAME":"STARLINK-2022","ARG_OF_PERICENTER":"65.8877","APOAPSIS":"548.374","REV_AT_EPOCH":"5579","INCLINATION":"53.0553","SITE":"AFETR","MEAN_MOTION":"15.06403702","PERIOD":"95.592","ELEMENT_SET_NO":"999","TIME_SYSTEM":"UTC","LAUNCH_DATE":"2021-02-16","REF_FRAME":"TEME","TLE_LINE2":"2 47643  53.0553 241.8184 0001692  65.8877 294.2289 15.06403702 55794","SEMIMAJOR_AXIS":"6925.337","MEAN_ANOMALY":"294.2289","CENTER_NAME":"EARTH"}];
